NORAD_CAT_ID,OBJECT_NAME,OBJECT_TYPE,EPOCH,MEAN_MOTION,ECCENTRICITY,INCLINATION,RA_OF_ASC_NODE,ARG_OF_PERICENTER,MEAN_ANOMALY,BSTAR,MEAN_MOTION_DOT,MEAN_MOTION_DDOT,TLE_LINE0,TLE_LINE1,TLE_LINE2,SEMIMAJOR_AXIS,PERIOD,APOGEE,PERIGEE,DECAYED
52877.0,STARLINK-4214,PAYLOAD,2022-09-07 22:00:00,15.51079633,0.0001338,53.2172,357.9416,52.7356,167.7782,-0.019384,-0.01044061,0.0,0 STARLINK-4214,1 52877U 22062AZ  22250.91667824 -.01044061  00000-0 -19384-1 0  9999,2 52877  53.2172 357.9416 0001338  52.7356 167.7782 15.51079633  1301,6791.71,92.839,414.483,412.666,0.0
52877.0,STARLINK-4214,PAYLOAD,2022-09-08 06:00:00,15.50232556,0.0001355,53.2174,356.3461,45.4349,236.9798,-0.0082718999999999,-0.00449482,0.0,0 STARLINK-4214,1 52877U 22062AZ  22251.25001157 -.00449482  00000-0 -82719-2 0  9996,2 52877  53.2174 356.3461 0001355  45.4349 236.9798 15.50232556 13512,6794.184,92.889,416.969,415.128,0.0
52877.0,STARLINK-4214,PAYLOAD,2022-09-08 14:00:01,15.49886446,0.0001685,53.2173,354.755,42.3885,301.1572,-3.6593e-05,-2.528e-05,0.0,0 STARLINK-4214,1 52877U 22062AZ  22251.58334491 -.00002528  00000-0 -36593-4 0  9999,2 52877  53.2173 354.7550 0001685  42.3885 301.1572 15.49886446  1309,6795.195,92.91,418.205,415.915,0.0
52877.0,STARLINK-4214,PAYLOAD,2022-09-08 22:00:00,15.49897075,0.0001647,53.2158,353.1524,44.9369,359.3429,-0.00030517,-0.0001774,0.0,0 STARLINK-4214,1 52877U 22062AZ  22251.91667824 -.00017740  00000-0 -30517-3 0  9996,2 52877  53.2158 353.1524 0001647  44.9369 359.3429 15.49897075 13612,6795.1640000000025,92.909,418.148,415.91,0.0
52877.0,STARLINK-4214,PAYLOAD,2022-09-09 14:00:01,15.49905075,0.0001784,53.2162,349.9679,44.6763,121.4618,0.00018599,0.00010125,0.0,0 STARLINK-4214,1 52877U 22062AZ  22252.58334491  .00010125  00000-0  18599-3 0  9995,2 52877  53.2162 349.9679 0001784  44.6763 121.4618 15.49905075  1309,6795.141,92.909,418.218,415.793,0.0
52877.0,STARLINK-4214,PAYLOAD,2022-09-09 22:00:00,15.49953327,0.0001794,53.2166,348.3779,41.8438,185.2247,-0.0010498,-0.00059727,0.0,0 STARLINK-4214,1 52877U 22062AZ  22252.91667824 -.00059727  00000-0 -10498-2 0  9993,2 52877  53.2166 348.3779 0001794  41.8438 185.2247 15.49953327  1305,6794.999,92.906,418.083,415.645,0.0
52877.0,STARLINK-4214,PAYLOAD,2022-09-10 06:00:02,15.50073359,0.0001426999999999,53.2171,346.7872,51.0721,237.0216,-0.018441,-0.00965236,0.0,0 STARLINK-4214,1 52877U 22062AZ  22253.25002315 -.00965236  00000-0 -18441-1 0  9995,2 52877  53.2171 346.7872 0001427  51.0721 237.0216 15.50073359 13820,6794.649,92.899,417.483,415.544,0.0
52877.0,STARLINK-4214,PAYLOAD,2022-09-10 14:00:01,15.49386933,0.0001694,53.2176,345.2008,33.6089,315.1396,-0.020982,-0.01062128,0.0,0 STARLINK-4214,1 52877U 22062AZ  22253.58334491 -.01062128  00000-0 -20982-1 0  9996,2 52877  53.2176 345.2008 0001694  33.6089 315.1396 15.49386933  1309,6796.655,92.94,419.672,417.369,0.0
52877.0,STARLINK-4214,PAYLOAD,2022-09-10 22:00:00,15.48625941,0.0001416999999999,53.2175,343.611,43.2989,5.2979,-0.021497,-0.01059456,0.0,0 STARLINK-4214,1 52877U 22062AZ  22253.91667824 -.01059456  00000-0 -21497-1 0  9994,2 52877  53.2175 343.6110 0001417  43.2989   5.2979 15.48625941 13922,6798.882,92.986,421.71,419.783,0.0
52877.0,STARLINK-4214,PAYLOAD,2022-09-11 14:00:01,15.47106182,0.0001631999999999,53.2177,340.4398,48.4078,117.1443,-0.022624,-0.01057338,0.0,0 STARLINK-4214,1 52877U 22062AZ  22254.58334491 -.01057338  00000-0 -22624-1 0  9999,2 52877  53.2177 340.4398 0001632  48.4078 117.1443 15.47106182  1300,6803.333000000001,93.077,426.309,424.088,0.0
52877.0,STARLINK-4214,PAYLOAD,2022-09-11 22:00:00,15.4634845,0.0001496999999999,53.2175,338.8553,51.9942,170.6671,-0.023312,-0.01060735,0.0,0 STARLINK-4214,1 52877U 22062AZ  22254.91667824 -.01060735  00000-0 -23312-1 0  9995,2 52877  53.2175 338.8553 0001497  51.9942 170.6671 15.46348450  1302,6805.556,93.123,428.44,426.402,0.0
52877.0,STARLINK-4214,PAYLOAD,2022-09-12 14:00:01,15.44829114,0.0001826,53.2176,335.6952,30.7565,303.3838,-0.024537,-0.01059599,0.0,0 STARLINK-4214,1 52877U 22062AZ  22255.58334491 -.01059599  00000-0 -24537-1 0  9996,2 52877  53.2176 335.6952 0001826  30.7565 303.3838 15.44829114  1302,6810.017,93.214,433.126,430.639,0.0
52877.0,STARLINK-4214,PAYLOAD,2022-09-12 22:00:00,15.44087474,0.0001721999999999,53.2171,334.1149,31.6861,356.8183,-0.02581,-0.01099558,0.0,0 STARLINK-4214,1 52877U 22062AZ  22255.91667824 -.01099558  00000-0 -25810-1 0  9996,2 52877  53.2171 334.1149 0001722  31.6861 356.8183 15.44087474 14230,6812.198,93.259,435.236,432.89,0.0
52877.0,STARLINK-4214,PAYLOAD,2022-09-13 14:00:01,15.42548221,0.0001958,53.2175,330.9669,34.2768,100.2392,-0.026395,-0.0106982,0.0,0 STARLINK-4214,1 52877U 22062AZ  22256.58334491 -.01069820  00000-0 -26395-1 0  9999,2 52877  53.2175 330.9669 0001958  34.2768 100.2392 15.42548221  1308,6816.729,93.352,439.92800000000005,437.259,0.0
52877.0,STARLINK-4214,PAYLOAD,2022-09-13 22:00:00,15.41790271,0.0001783,53.2175,329.39300000000014,39.2976,146.8517,-0.02715,-0.01072404,0.0,0 STARLINK-4214,1 52877U 22062AZ  22256.91667824 -.01072404  00000-0 -27150-1 0  9997,2 52877  53.2175 329.3930 0001783  39.2976 146.8517 15.41790271  1301,6818.9630000000025,93.398,442.043,439.612,0.0
52877.0,STARLINK-4214,PAYLOAD,2022-09-14 06:00:00,15.41075134,0.0001654,53.2169,327.8199,45.073,191.7735,-0.0294019999999999,-0.01128654,0.0,0 STARLINK-4214,1 52877U 22062AZ  22257.25001157 -.01128654  00000-0 -29402-1 0  9997,2 52877  53.2169 327.8199 0001654  45.0730 191.7735 15.41075134 14448,6821.071999999999,93.441,444.065,441.809,0.0
52877.0,STARLINK-4214,PAYLOAD,2022-09-14 12:00:00,15.40459296,0.0001883,53.2174,326.6466,39.5594,144.7513,-0.028288,-0.01069013,0.0,0 STARLINK-4214,1 52877U 22062AZ  22257.50001157 -.01069013  00000-0 -28288-1 0  9999,2 52877  53.2174 326.6466 0001883  39.5594 144.7513 15.40459296  1305,6822.89,93.479,446.04,443.47,0.0
52877.0,STARLINK-4214,PAYLOAD,2022-09-14 22:00:00,15.39512143,0.000147,53.2176,324.6862,41.7721,293.8001,-0.029317,-0.01073141,0.0,0 STARLINK-4214,1 52877U 22062AZ  22257.91667824 -.01073141  00000-0 -29317-1 0  9994,2 52877  53.2176 324.6862 0001470  41.7721 293.8001 15.39512143 14541,6825.688,93.536,448.556,446.55,0.0
52877.0,STARLINK-4214,PAYLOAD,2022-09-15 14:00:01,15.38073877,0.000184,53.2174,321.5577,26.5103,44.0651,-0.0337579999999999,-0.01169397,0.0,0 STARLINK-4214,1 52877U 22062AZ  22258.58334491 -.01169397  00000-0 -33758-1 0  9992,2 52877  53.2174 321.5577 0001840  26.5103  44.0651 15.38073877  1306,6829.941999999999,93.624,453.064,450.551,0.0
52877.0,STARLINK-4214,PAYLOAD,2022-09-15 22:00:00,15.37230754,0.0001831999999999,53.2176,319.9957,34.8226,81.9595,-0.03142,-0.01067665,0.0,0 STARLINK-4214,1 52877U 22062AZ  22258.91667824 -.01067665  00000-0 -31420-1 0  9997,2 52877  53.2176 319.9957 0001832  34.8226  81.9595 15.37230754  1305,6832.44,93.675,455.556,453.05300000000005,0.0
52877.0,STARLINK-4214,PAYLOAD,2022-09-16 02:00:01,15.36849836,0.0001703,53.2174,319.2149,34.3728,285.1464,-0.031764,-0.01066153,0.0,0 STARLINK-4214,1 52877U 22062AZ  22259.08334491 -.01066153  00000-0 -31764-1 0  9999,2 52877  53.2174 319.2149 0001703  34.3728 285.1464 15.36849836 14727,6833.568,93.698,456.597,454.27,0.0
52877.0,STARLINK-4214,PAYLOAD,2022-09-16 14:00:01,15.35709164,0.0001950999999999,53.2177,316.8794,36.4339,169.9239,-0.032841,-0.01062683,0.0,0 STARLINK-4214,1 52877U 22062AZ  22259.58334491 -.01062683  00000-0 -32841-1 0  9995,2 52877  53.2177 316.8794 0001951  36.4339 169.9239 15.35709164  1302,6836.9519999999975,93.768,460.151,457.483,0.0
52877.0,STARLINK-4214,PAYLOAD,2022-09-16 22:00:00,15.34953214,0.000154,53.2176,315.3214,49.106,200.6706,-0.033856,-0.01068572,0.0,0 STARLINK-4214,1 52877U 22062AZ  22259.91667824 -.01068572  00000-0 -33856-1 0  9991,2 52877  53.2176 315.3214 0001540  49.1060 200.6706 15.34953214 14850,6839.196,93.814,462.115,460.008,0.0
52877.0,STARLINK-4214,PAYLOAD,2022-09-17 14:00:01,15.33432419,0.0001545,53.2175,312.216,41.8226,292.0535,-0.035419,-0.01065175,0.0,0 STARLINK-4214,1 52877U 22062AZ  22260.58334491 -.01065175  00000-0 -35419-1 0  9990,2 52877  53.2175 312.2160 0001545  41.8226 292.0535 15.33432419  1302,6843.718000000003,93.907,466.64,464.525,0.0
52877.0,STARLINK-4214,PAYLOAD,2022-09-17 22:00:00,15.32673931,0.0001473,53.2176,310.6633,41.7629,332.7951,-0.036373,-0.01067626,0.0,0 STARLINK-4214,1 52877U 22062AZ  22260.91667824 -.01067626  00000-0 -36373-1 0  9999,2 52877  53.2176 310.6633 0001473  41.7629 332.7951 15.32673931 15007,6845.975,93.953,468.849,466.832,0.0
52877.0,STARLINK-4214,PAYLOAD,2022-09-18 14:00:01,15.31151739,0.0001525,53.2174,307.5687,47.7994,45.4464,-0.0379279999999999,-0.0106169,0.0,0 STARLINK-4214,1 52877U 22062AZ  22261.58335648 -.01061690  00000-0 -37928-1 0  9991,2 52877  53.2174 307.5687 0001525  47.7994  45.4464 15.31151739  1309,6850.512,94.047,473.422,471.332,0.0
52877.0,STARLINK-4214,PAYLOAD,2022-09-18 22:00:00,15.30393594,0.0001706999999999,53.2175,306.0214,41.2293,89.8963,-0.0389269999999999,-0.01063966,0.0,0 STARLINK-4214,1 52877U 22062AZ  22261.91667824 -.01063966  00000-0 -38927-1 0  9990,2 52877  53.2175 306.0214 0001707  41.2293  89.8963 15.30393594 15153,6852.774,94.093,475.809,473.469,0.0
52877.0,STARLINK-4214,PAYLOAD,2022-09-19 14:00:01,15.28872041,0.000161,53.2174,302.9376,51.4063,152.8669,-0.040601,-0.01058935,0.0,0 STARLINK-4214,1 52877U 22062AZ  22262.58334491 -.01058935  00000-0 -40601-1 0  9997,2 52877  53.2174 302.9376 0001610  51.4063 152.8669 15.28872041  1309,6857.32,94.187,480.289,478.081,0.0
52877.0,STARLINK-4214,PAYLOAD,2022-09-19 22:00:00,15.281147699999998,0.0001583,53.2175,301.3956,48.8897,190.5889,-0.041722,-0.01062719,0.0,0 STARLINK-4214,1 52877U 22062AZ  22262.91667824 -.01062719  00000-0 -41722-1 0  9993,2 52877  53.2175 301.3956 0001583  48.8897 190.5889 15.28114770 15318,6859.585,94.234,482.536,480.364,0.0
